{
"type": "FeatureCollection",
"name": "Stadtmauern_web",
"crs": { "type": "name", "properties": { "name": "urn:ogc:def:crs:OGC:1.3:CRS84" } },
"features": [
{ "type": "Feature", "properties": { "id": 1, "Name": "Innere Stadtmauer" }, "geometry": { "type": "MultiLineString", "coordinates": [ [ [ 7.586698330998574, 47.561649467629323 ], [ 7.586215203338413, 47.561525902970573 ], [ 7.585934233695954, 47.561179869100343 ], [ 7.585101217217765, 47.560220178518072 ], [ 7.584693741227882, 47.559508304004879 ], [ 7.584556781673012, 47.558854910476356 ], [ 7.584525602819775, 47.55804452864529 ], [ 7.584437066398975, 47.557443359267275 ], [ 7.584339572367164, 47.557097091453429 ], [ 7.58411665619476, 47.556783658376517 ], [ 7.585679115597455, 47.556193488948217 ], [ 7.585987687352103, 47.556055850494644 ], [ 7.587116230407504, 47.5556753502552 ], [ 7.587308849521863, 47.555505177595371 ], [ 7.587654299071843, 47.554746599869304 ], [ 7.587894637229553, 47.554380295298202 ], [ 7.588830945519849, 47.554320271545315 ], [ 7.589573887733158, 47.554162455861537 ], [ 7.590625763102151, 47.554004232910508 ], [ 7.591716268012455, 47.553852485315652 ], [ 7.591977008395147, 47.553878285174235 ], [ 7.594412230767561, 47.554678941821834 ], [ 7.594566987767477, 47.554776769768417 ], [ 7.595090280632197, 47.555442705806733 ] ] ] } },
{ "type": "Feature", "properties": { "id": 2, "Name": "Äussere Stadtmauer" }, "geometry": { "type": "MultiLineString", "coordinates": [ [ [ 7.582854964968289, 47.566892509352371 ], [ 7.581848846932231, 47.566480119270949 ], [ 7.581661687425862, 47.565055622825724 ], [ 7.582576219679487, 47.564250216316843 ], [ 7.582154223177444, 47.563878469079313 ], [ 7.582845658920617, 47.563445601938639 ], [ 7.58194707675365, 47.562596469138256 ], [ 7.581222568647389, 47.562005791981584 ], [ 7.580257101061805, 47.560318968525017 ], [ 7.582326445227558, 47.559746545214651 ], [ 7.58229058125164, 47.559034224687665 ], [ 7.582282864844331, 47.558689541523201 ], [ 7.582322514404034, 47.558285053211947 ], [ 7.581439179128806, 47.558024171940588 ], [ 7.581282739158352, 47.557918657649509 ], [ 7.581329970741565, 47.557808298165106 ], [ 7.581193102821302, 47.557404026010396 ], [ 7.581192330273834, 47.557114484951597 ], [ 7.581246191192099, 47.556944370594721 ], [ 7.581400847526007, 47.556383480821417 ], [ 7.58213360588833, 47.556203340924519 ], [ 7.583137679097436, 47.555930942266549 ], [ 7.584481714634027, 47.555846542260738 ], [ 7.584927611122051, 47.555046295530374 ], [ 7.58551575953948, 47.554135565834578 ], [ 7.586049881328015, 47.553335203053187 ], [ 7.586313452838158, 47.552902853678482 ], [ 7.586505271663884, 47.552450084001713 ], [ 7.586751960326353, 47.551904984071633 ], [ 7.586968649452033, 47.551707084188898 ], [ 7.587361700665129, 47.551458403909606 ], [ 7.587557340834776, 47.551016946220756 ], [ 7.587888362790275, 47.550437437336434 ], [ 7.589149546641404, 47.54991188080691 ], [ 7.589807243758732, 47.549635274429768 ], [ 7.590653647701432, 47.548880442663744 ], [ 7.590959488001802, 47.54900872902946 ], [ 7.591863915703923, 47.549559053550347 ], [ 7.592782071711631, 47.550155311941943 ], [ 7.593713892144653, 47.550774524353045 ], [ 7.594822601278102, 47.5515175819082 ], [ 7.597090850009685, 47.551799465967406 ], [ 7.597756399711488, 47.551885881273954 ], [ 7.600717882087481, 47.55241492483588 ], [ 7.603591310934291, 47.552989976520287 ], [ 7.60365958272165, 47.553113969503499 ], [ 7.604604231031566, 47.553434341321193 ], [ 7.604356138681308, 47.554432007664182 ], [ 7.604222354483964, 47.555075625542692 ] ] ] } },
{ "type": "Feature", "properties": { "id": 3, "Name": "Kleinbasler Stadtmauer" }, "geometry": { "type": "MultiLineString", "coordinates": [ [ [ 7.589584912242342, 47.562104275908638 ], [ 7.58882186805624, 47.563058248081134 ], [ 7.590997833585591, 47.563846792965855 ], [ 7.59163740814015, 47.562915260917521 ], [ 7.593458449555481, 47.563392135919273 ], [ 7.593753554618925, 47.562940328882839 ], [ 7.594787336240453, 47.561685018369701 ], [ 7.597046363699523, 47.559932039449016 ], [ 7.598097357155859, 47.558972045021562 ], [ 7.596586577111735, 47.557580845104923 ], [ 7.596446535626402, 47.557553169692284 ], [ 7.595689815012225, 47.557793832430711 ], [ 7.595311689245083, 47.557994970569048 ], [ 7.595007624839997, 47.558184862034842 ], [ 7.594801995834397, 47.558252014148998 ], [ 7.594374286485989, 47.558391912292194 ], [ 7.594061918520246, 47.558559520218886 ] ] ] } }
]
}
